start=new Date('2023-06-18T00:00:00.000Z').valueOf();
sats=[{"PERIOD":"95.438","OBJECT_TYPE":"PAYLOAD","NORAD_CAT_ID":"54170","BSTAR":"0.00008106500000","ARG_OF_PERICENTER":"83.1242","TLE_LINE2":"2 54170  53.2154 157.2056 0000990  83.1242 276.9862 15.08839813 35434","MEAN_MOTION_DOT":"0.00001003","ECCENTRICITY":"0.00009900","MEAN_MOTION":"15.08839813","SITE":"AFWTR","MEAN_ELEMENT_THEORY":"SGP4","REV_AT_EPOCH":"3543","MEAN_ANOMALY":"276.9862","CLASSIFICATION_TYPE":"U","APOAPSIS":"540.431","INCLINATION":"53.2154","FILE":"3935591","CENTER_NAME":"EARTH","EPOCH":"2023-06-17T06:50:30.181920","OBJECT_ID":"2022-141P","RA_OF_ASC_NODE":"157.2056","SEMIMAJOR_AXIS":"6917.881","RCS_SIZE":"LARGE","DECAY_DATE":null,"ELEMENT_SET_NO":"999","PERIAPSIS":"539.061","REF_FRAME":"TEME","TLE_LINE1":"1 54170U 22141P   23168.28507155  .00001003  00000-0  81065-4 0  9998","TIME_SYSTEM":"UTC","OBJECT_NAME":"STARLINK-5155","COUNTRY_CODE":"US","GP_ID":"234139409","MEAN_MOTION_DDOT":"0.0000000000000","EPHEMERIS_TYPE":"0","LAUNCH_DATE":"2022-10-28"},{"INCLINATION":"53.2149","FILE":"3935591","EPOCH":"2023-06-17T06:25:57.493920","CENTER_NAME":"EARTH","APOAPSIS":"540.493","CLASSIFICATION_TYPE":"U","MEAN_ANOMALY":"279.0718","REV_AT_EPOCH":"3536","MEAN_ELEMENT_THEORY":"SGP4","MEAN_MOTION":"15.08838167","SITE":"AFWTR","ECCENTRICITY":"0.00010720","TLE_LINE2":"2 54171  53.2149 162.0790 0001072  81.0396 279.0718 15.08838167 35364","MEAN_MOTION_DOT":"0.00000281","ARG_OF_PERICENTER":"81.0396","NORAD_CAT_ID":"54171","BSTAR":"0.00003575200000","OBJECT_TYPE":"PAYLOAD","PERIOD":"95.438","LAUNCH_DATE":"2022-10-28","MEAN_MOTION_DDOT":"0.0000000000000","EPHEMERIS_TYPE":"0","GP_ID":"234139921","COUNTRY_CODE":"US","OBJECT_NAME":"STARLINK-5229","TIME_SYSTEM":"UTC","TLE_LINE1":"1 54171U 22141Q   23168.26802655  .00000281  00000-0  35752-4 0  9999","REF_FRAME":"TEME","PERIAPSIS":"539.009","ELEMENT_SET_NO":"999","RCS_SIZE":"LARGE","DECAY_DATE":null,"OBJECT_ID":"2022-141Q","RA_OF_ASC_NODE":"162.0790","SEMIMAJOR_AXIS":"6917.886"},{"COUNTRY_CODE":"US","GP_ID":"234140171","EPHEMERIS_TYPE":"0","MEAN_MOTION_DDOT":"0.0000000000000","LAUNCH_DATE":"2022-10-28","TLE_LINE1":"1 54172U 22141R   23168.27770088  .00000494  00000-0  49092-4 0  9993","TIME_SYSTEM":"UTC","OBJECT_NAME":"STARLINK-5117","PERIAPSIS":"539.001","REF_FRAME":"TEME","SEMIMAJOR_AXIS":"6917.882","RA_OF_ASC_NODE":"157.1601","OBJECT_ID":"2022-141R","DECAY_DATE":null,"RCS_SIZE":"LARGE","ELEMENT_SET_NO":"999","REV_AT_EPOCH":"3543","CLASSIFICATION_TYPE":"U","MEAN_ANOMALY":"278.9517","APOAPSIS":"540.492","EPOCH":"2023-06-17T06:39:53.356032","CENTER_NAME":"EARTH","FILE":"3935591","INCLINATION":"53.2154","ECCENTRICITY":"0.00010780","SITE":"AFWTR","MEAN_MOTION":"15.08839614","MEAN_ELEMENT_THEORY":"SGP4","OBJECT_TYPE":"PAYLOAD","BSTAR":"0.00004909200000","NORAD_CAT_ID":"54172","ARG_OF_PERICENTER":"81.1597","TLE_LINE2":"2 54172  53.2154 157.1601 0001078  81.1597 278.9517 15.08839614 35438","MEAN_MOTION_DOT":"0.00000494","PERIOD":"95.438"},{"PERIAPSIS":"538.954","REF_FRAME":"TEME","OBJECT_ID":"2022-141S","RA_OF_ASC_NODE":"156.3379","SEMIMAJOR_AXIS":"6917.873","RCS_SIZE":"LARGE","DECAY_DATE":null,"ELEMENT_SET_NO":"999","COUNTRY_CODE":"US","GP_ID":"234140421","MEAN_MOTION_DDOT":"0.0000000000000","EPHEMERIS_TYPE":"0","LAUNCH_DATE":"2022-10-28","TLE_LINE1":"1 54173U 22141S   23168.37333183  .00000850  00000-0  71470-4 0  9997","TIME_SYSTEM":"UTC","OBJECT_NAME":"STARLINK-5242","OBJECT_TYPE":"PAYLOAD","NORAD_CAT_ID":"54173","BSTAR":"0.00007147000000","ARG_OF_PERICENTER":"87.7037","MEAN_MOTION_DOT":"0.00000850","TLE_LINE2":"2 54173  53.2156 156.3379 0001134  87.7037 272.4085 15.08842323 35450","PERIOD":"95.437","REV_AT_EPOCH":"3545","CLASSIFICATION_TYPE":"U","MEAN_ANOMALY":"272.4085","APOAPSIS":"540.523","FILE":"3935591","INCLINATION":"53.2156","EPOCH":"2023-06-17T08:57:35.870112","CENTER_NAME":"EARTH","ECCENTRICITY":"0.00011340","SITE":"AFWTR","MEAN_MOTION":"15.08842323","MEAN_ELEMENT_THEORY":"SGP4"},{"CLASSIFICATION_TYPE":"U","MEAN_ANOMALY":"266.7989","REV_AT_EPOCH":"3629","EPOCH":"2023-06-17T20:16:40.202400","CENTER_NAME":"EARTH","FILE":"3935891","INCLINATION":"53.2179","APOAPSIS":"540.528","ECCENTRICITY":"0.00010390","MEAN_ELEMENT_THEORY":"SGP4","SITE":"AFWTR","MEAN_MOTION":"15.08819255","BSTAR":"-0.00019765000000","NORAD_CAT_ID":"54174","OBJECT_TYPE":"PAYLOAD","TLE_LINE2":"2 54174  53.2179  99.3856 0001039  93.3122 266.7989 15.08819255 36294","MEAN_MOTION_DOT":"-0.00003430","ARG_OF_PERICENTER":"93.3122","PERIOD":"95.439","GP_ID":"234174755","COUNTRY_CODE":"US","LAUNCH_DATE":"2022-10-28","EPHEMERIS_TYPE":"0","MEAN_MOTION_DDOT":"0.0000000000000","TLE_LINE1":"1 54174U 22141T   23168.84490975 -.00003430  00000-0 -19765-3 0  9990","OBJECT_NAME":"STARLINK-5248","TIME_SYSTEM":"UTC","PERIAPSIS":"539.090","REF_FRAME":"TEME","SEMIMAJOR_AXIS":"6917.944","RA_OF_ASC_NODE":"99.3856","OBJECT_ID":"2022-141T","ELEMENT_SET_NO":"999","DECAY_DATE":null,"RCS_SIZE":"LARGE"},{"EPOCH":"2023-06-17T16:17:31.082208","CENTER_NAME":"EARTH","INCLINATION":"53.2160","FILE":"3935891","APOAPSIS":"540.463","CLASSIFICATION_TYPE":"U","MEAN_ANOMALY":"274.0769","REV_AT_EPOCH":"3549","MEAN_ELEMENT_THEORY":"SGP4","MEAN_MOTION":"15.08834269","SITE":"AFWTR","ECCENTRICITY":"0.00010120","TLE_LINE2":"2 54175  53.2160 155.4002 0001012  86.0338 274.0769 15.08834269 35492","MEAN_MOTION_DOT":"0.00000013","ARG_OF_PERICENTER":"86.0338","BSTAR":"0.00001886800000","NORAD_CAT_ID":"54175","OBJECT_TYPE":"PAYLOAD","PERIOD":"95.438","LAUNCH_DATE":"2022-10-28","EPHEMERIS_TYPE":"0","MEAN_MOTION_DDOT":"0.0000000000000","GP_ID":"234173503","COUNTRY_CODE":"US","OBJECT_NAME":"STARLINK-5256","TIME_SYSTEM":"UTC","TLE_LINE1":"1 54175U 22141U   23168.67883197  .00000013  00000-0  18868-4 0  9990","REF_FRAME":"TEME","PERIAPSIS":"539.063","ELEMENT_SET_NO":"999","DECAY_DATE":null,"RCS_SIZE":"LARGE","SEMIMAJOR_AXIS":"6917.898","RA_OF_ASC_NODE":"155.4002","OBJECT_ID":"2022-141U"},{"PERIOD":"95.438","ARG_OF_PERICENTER":"75.7636","MEAN_MOTION_DOT":"-0.00000552","TLE_LINE2":"2 54176  53.2151 155.3053 0001102  75.7636 284.3479 15.08834767 35499","OBJECT_TYPE":"PAYLOAD","NORAD_CAT_ID":"54176","BSTAR":"-0.00001663500000","SITE":"AFWTR","MEAN_MOTION":"15.08834767","MEAN_ELEMENT_THEORY":"SGP4","ECCENTRICITY":"0.00011020","APOAPSIS":"540.524","INCLINATION":"53.2151","FILE":"3935891","EPOCH":"2023-06-17T15:56:17.459808","CENTER_NAME":"EARTH","REV_AT_EPOCH":"3549","CLASSIFICATION_TYPE":"U","MEAN_ANOMALY":"284.3479","RCS_SIZE":"LARGE","DECAY_DATE":null,"ELEMENT_SET_NO":"999","RA_OF_ASC_NODE":"155.3053","OBJECT_ID":"2022-141V","SEMIMAJOR_AXIS":"6917.896","REF_FRAME":"TEME","PERIAPSIS":"538.999","TIME_SYSTEM":"UTC","OBJECT_NAME":"STARLINK-5154","TLE_LINE1":"1 54176U 22141V   23168.66409097 -.00000552  00000-0 -16635-4 0  9993","MEAN_MOTION_DDOT":"0.0000000000000","EPHEMERIS_TYPE":"0","LAUNCH_DATE":"2022-10-28","COUNTRY_CODE":"US","GP_ID":"234173753"},{"OBJECT_NAME":"STARLINK-5186","TIME_SYSTEM":"UTC","TLE_LINE1":"1 54177U 22141W   23168.67146188  .00000019  00000-0  19279-4 0  9997","LAUNCH_DATE":"2022-10-28","EPHEMERIS_TYPE":"0","MEAN_MOTION_DDOT":"0.0000000000000","GP_ID":"234174505","COUNTRY_CODE":"US","ELEMENT_SET_NO":"999","DECAY_DATE":null,"RCS_SIZE":"LARGE","SEMIMAJOR_AXIS":"6917.899","OBJECT_ID":"2022-141W","RA_OF_ASC_NODE":"155.3539","REF_FRAME":"TEME","PERIAPSIS":"539.051","MEAN_ELEMENT_THEORY":"SGP4","MEAN_MOTION":"15.08833885","SITE":"AFWTR","ECCENTRICITY":"0.00010310","EPOCH":"2023-06-17T16:06:54.306432","CENTER_NAME":"EARTH","INCLINATION":"53.2156","FILE":"3935891","APOAPSIS":"540.477","MEAN_ANOMALY":"273.2916","CLASSIFICATION_TYPE":"U","REV_AT_EPOCH":"3549","PERIOD":"95.438","MEAN_MOTION_DOT":"0.00000019","TLE_LINE2":"2 54177  53.2156 155.3539 0001031  86.8194 273.2916 15.08833885 35490","ARG_OF_PERICENTER":"86.8194","BSTAR":"0.00001927900000","NORAD_CAT_ID":"54177","OBJECT_TYPE":"PAYLOAD"},{"REF_FRAME":"TEME","PERIAPSIS":"538.631","ELEMENT_SET_NO":"999","DECAY_DATE":null,"RCS_SIZE":"LARGE","SEMIMAJOR_AXIS":"6917.914","RA_OF_ASC_NODE":"155.2665","OBJECT_ID":"2022-141X","LAUNCH_DATE":"2022-10-28","EPHEMERIS_TYPE":"0","MEAN_MOTION_DDOT":"0.0000000000000","GP_ID":"234175255","COUNTRY_CODE":"US","OBJECT_NAME":"STARLINK-5164","TIME_SYSTEM":"UTC","TLE_LINE1":"1 54178U 22141X   23168.66136876 -.00000597  00000-0 -19410-4 0  9990","MEAN_MOTION_DOT":"-0.00000597","TLE_LINE2":"2 54178  53.2165 155.2665 0001660  84.0658 276.0523 15.08829027 35491","ARG_OF_PERICENTER":"84.0658","BSTAR":"-0.00001941000000","NORAD_CAT_ID":"54178","OBJECT_TYPE":"PAYLOAD","PERIOD":"95.438","CENTER_NAME":"EARTH","EPOCH":"2023-06-17T15:52:22.260864","FILE":"3935891","INCLINATION":"53.2165","APOAPSIS":"540.927","MEAN_ANOMALY":"276.0523","CLASSIFICATION_TYPE":"U","REV_AT_EPOCH":"3549","MEAN_ELEMENT_THEORY":"SGP4","SITE":"AFWTR","MEAN_MOTION":"15.08829027","ECCENTRICITY":"0.00016600"},{"RCS_SIZE":"LARGE","DECAY_DATE":null,"ELEMENT_SET_NO":"999","RA_OF_ASC_NODE":"155.3304","OBJECT_ID":"2022-141Y","SEMIMAJOR_AXIS":"6917.898","REF_FRAME":"TEME","PERIAPSIS":"539.066","TIME_SYSTEM":"UTC","OBJECT_NAME":"STARLINK-5122","TLE_LINE1":"1 54179U 22141Y   23168.66777737 -.00000102  00000-0  11664-4 0  9992","MEAN_MOTION_DDOT":"0.0000000000000","EPHEMERIS_TYPE":"0","LAUNCH_DATE":"2022-10-28","COUNTRY_CODE":"US","GP_ID":"234174003","PERIOD":"95.438","ARG_OF_PERICENTER":"82.5893","MEAN_MOTION_DOT":"-0.00000102","TLE_LINE2":"2 54179  53.2153 155.3304 0001008  82.5893 277.5214 15.08834088 35496","OBJECT_TYPE":"PAYLOAD","NORAD_CAT_ID":"54179","BSTAR":"0.00001166400000","MEAN_MOTION":"15.08834088","SITE":"AFWTR","MEAN_ELEMENT_THEORY":"SGP4","ECCENTRICITY":"0.00010080","APOAPSIS":"540.461","FILE":"3935891","INCLINATION":"53.2153","EPOCH":"2023-06-17T16:01:35.964768","CENTER_NAME":"EARTH","REV_AT_EPOCH":"3549","MEAN_ANOMALY":"277.5214","CLASSIFICATION_TYPE":"U"}];
